{
 "generated_at": "2026-06-26T08:30:21Z",
 "sources": [
  {
   "name": "CelesTrak",
   "url": "https://celestrak.org/NORAD/elements/",
   "license": "frei verfügbar; Attribution. Ursprünglich USSPACECOM/Space-Track."
  },
  {
   "name": "GCAT (J. McDowell, planet4589.org)",
   "url": "https://planet4589.org/space/gcat/",
   "license": "CC-BY 4.0"
  }
 ],
 "satellites": [
  {
   "norad": 55974,
   "name": "TIANMU-1 04",
   "intl": "2023-039B",
   "group": "weather",
   "gcat": {
    "class": "B",
    "category": "MET",
    "owner": "TIANMU",
    "state": "CN"
   },
   "omm": {
    "OBJECT_NAME": "TIANMU-1 04",
    "OBJECT_ID": "2023-039B",
    "EPOCH": "2026-06-26T05:15:07.513344",
    "MEAN_MOTION": 15.48136677,
    "ECCENTRICITY": 0.0004432,
    "INCLINATION": 97.5169,
    "RA_OF_ASC_NODE": 350.6974,
    "ARG_OF_PERICENTER": 70.8846,
    "MEAN_ANOMALY": 289.2883,
    "EPHEMERIS_TYPE": 0,
    "CLASSIFICATION_TYPE": "U",
    "NORAD_CAT_ID": 55974,
    "ELEMENT_SET_NO": 999,
    "REV_AT_EPOCH": 18224,
    "BSTAR": 0.0003391,
    "MEAN_MOTION_DOT": 0.00017731,
    "MEAN_MOTION_DDOT": 0
   }
  },
  {
   "norad": 55975,
   "name": "TIANMU-1 05",
   "intl": "2023-039C",
   "group": "weather",
   "gcat": {
    "class": "B",
    "category": "MET",
    "owner": "TIANMU",
    "state": "CN"
   },
   "omm": {
    "OBJECT_NAME": "TIANMU-1 05",
    "OBJECT_ID": "2023-039C",
    "EPOCH": "2026-06-26T05:08:16.288224",
    "MEAN_MOTION": 15.47453398,
    "ECCENTRICITY": 0.0003965,
    "INCLINATION": 97.5212,
    "RA_OF_ASC_NODE": 351.1498,
    "ARG_OF_PERICENTER": 92.6285,
    "MEAN_ANOMALY": 267.5419,
    "EPHEMERIS_TYPE": 0,
    "CLASSIFICATION_TYPE": "U",
    "NORAD_CAT_ID": 55975,
    "ELEMENT_SET_NO": 999,
    "REV_AT_EPOCH": 18221,
    "BSTAR": 0.0003304,
    "MEAN_MOTION_DOT": 0.00016865,
    "MEAN_MOTION_DDOT": 0
   }
  },
  {
   "norad": 55976,
   "name": "TIANMU-1 06",
   "intl": "2023-039D",
   "group": "weather",
   "gcat": {
    "class": "B",
    "category": "MET",
    "owner": "TIANMU",
    "state": "CN"
   },
   "omm": {
    "OBJECT_NAME": "TIANMU-1 06",
    "OBJECT_ID": "2023-039D",
    "EPOCH": "2026-06-26T05:20:48.339744",
    "MEAN_MOTION": 15.48038075,
    "ECCENTRICITY": 0.0004152,
    "INCLINATION": 97.5221,
    "RA_OF_ASC_NODE": 351.8036,
    "ARG_OF_PERICENTER": 87.6171,
    "MEAN_ANOMALY": 272.5555,
    "EPHEMERIS_TYPE": 0,
    "CLASSIFICATION_TYPE": "U",
    "NORAD_CAT_ID": 55976,
    "ELEMENT_SET_NO": 999,
    "REV_AT_EPOCH": 18224,
    "BSTAR": 0.00033252,
    "MEAN_MOTION_DOT": 0.00017324,
    "MEAN_MOTION_DDOT": 0
   }
  },
  {
   "norad": 57399,
   "name": "TIANMU-1 07",
   "intl": "2023-101A",
   "group": "weather",
   "gcat": {
    "class": "B",
    "category": "MET",
    "owner": "TIANMU",
    "state": "CN"
   },
   "omm": {
    "OBJECT_NAME": "TIANMU-1 07",
    "OBJECT_ID": "2023-101A",
    "EPOCH": "2026-06-26T04:36:16.966656",
    "MEAN_MOTION": 15.29906094,
    "ECCENTRICITY": 0.0004335,
    "INCLINATION": 97.2594,
    "RA_OF_ASC_NODE": 227.6533,
    "ARG_OF_PERICENTER": 103.0761,
    "MEAN_ANOMALY": 257.0964,
    "EPHEMERIS_TYPE": 0,
    "CLASSIFICATION_TYPE": "U",
    "NORAD_CAT_ID": 57399,
    "ELEMENT_SET_NO": 999,
    "REV_AT_EPOCH": 16302,
    "BSTAR": 0.00023729,
    "MEAN_MOTION_DOT": 0.00006799,
    "MEAN_MOTION_DDOT": 0
   }
  },
  {
   "norad": 57400,
   "name": "TIANMU-1 08",
   "intl": "2023-101B",
   "group": "weather",
   "gcat": {
    "class": "B",
    "category": "MET",
    "owner": "TIANMU",
    "state": "CN"
   },
   "omm": {
    "OBJECT_NAME": "TIANMU-1 08",
    "OBJECT_ID": "2023-101B",
    "EPOCH": "2026-06-26T03:48:12.703104",
    "MEAN_MOTION": 15.29909999,
    "ECCENTRICITY": 0.0005699,
    "INCLINATION": 97.2583,
    "RA_OF_ASC_NODE": 227.39,
    "ARG_OF_PERICENTER": 93.7061,
    "MEAN_ANOMALY": 266.4832,
    "EPHEMERIS_TYPE": 0,
    "CLASSIFICATION_TYPE": "U",
    "NORAD_CAT_ID": 57400,
    "ELEMENT_SET_NO": 999,
    "REV_AT_EPOCH": 16301,
    "BSTAR": 0.00025258,
    "MEAN_MOTION_DOT": 0.00007244,
    "MEAN_MOTION_DDOT": 0
   }
  },
  {
   "norad": 57401,
   "name": "TIANMU-1 09",
   "intl": "2023-101C",
   "group": "weather",
   "gcat": {
    "class": "B",
    "category": "MET",
    "owner": "TIANMU",
    "state": "CN"
   },
   "omm": {
    "OBJECT_NAME": "TIANMU-1 09",
    "OBJECT_ID": "2023-101C",
    "EPOCH": "2026-06-26T04:58:14.397312",
    "MEAN_MOTION": 15.29945233,
    "ECCENTRICITY": 0.0004887,
    "INCLINATION": 97.254,
    "RA_OF_ASC_NODE": 226.8487,
    "ARG_OF_PERICENTER": 106.4824,
    "MEAN_ANOMALY": 253.6954,
    "EPHEMERIS_TYPE": 0,
    "CLASSIFICATION_TYPE": "U",
    "NORAD_CAT_ID": 57401,
    "ELEMENT_SET_NO": 999,
    "REV_AT_EPOCH": 16302,
    "BSTAR": 0.00025955,
    "MEAN_MOTION_DOT": 0.00007454,
    "MEAN_MOTION_DDOT": 0
   }
  },
  {
   "norad": 57402,
   "name": "TIANMU-1 10",
   "intl": "2023-101D",
   "group": "weather",
   "gcat": {
    "class": "B",
    "category": "MET",
    "owner": "TIANMU",
    "state": "CN"
   },
   "omm": {
    "OBJECT_NAME": "TIANMU-1 10",
    "OBJECT_ID": "2023-101D",
    "EPOCH": "2026-06-26T04:11:53.138976",
    "MEAN_MOTION": 15.29916587,
    "ECCENTRICITY": 0.0006438,
    "INCLINATION": 97.262,
    "RA_OF_ASC_NODE": 227.8769,
    "ARG_OF_PERICENTER": 103.2903,
    "MEAN_ANOMALY": 256.9056,
    "EPHEMERIS_TYPE": 0,
    "CLASSIFICATION_TYPE": "U",
    "NORAD_CAT_ID": 57402,
    "ELEMENT_SET_NO": 999,
    "REV_AT_EPOCH": 16301,
    "BSTAR": 0.00025482,
    "MEAN_MOTION_DOT": 0.00007311,
    "MEAN_MOTION_DDOT": 0
   }
  },
  {
   "norad": 58645,
   "name": "TIANMU-1 11",
   "intl": "2023-205A",
   "group": "weather",
   "gcat": {
    "class": "B",
    "category": "MET",
    "owner": "TIANMU",
    "state": "CN"
   },
   "omm": {
    "OBJECT_NAME": "TIANMU-1 11",
    "OBJECT_ID": "2023-205A",
    "EPOCH": "2026-06-26T05:27:35.554176",
    "MEAN_MOTION": 15.27082457,
    "ECCENTRICITY": 0.0007828,
    "INCLINATION": 97.3446,
    "RA_OF_ASC_NODE": 198.6423,
    "ARG_OF_PERICENTER": 344.5577,
    "MEAN_ANOMALY": 15.5422,
    "EPHEMERIS_TYPE": 0,
    "CLASSIFICATION_TYPE": "U",
    "NORAD_CAT_ID": 58645,
    "ELEMENT_SET_NO": 999,
    "REV_AT_EPOCH": 13890,
    "BSTAR": 0.00022759,
    "MEAN_MOTION_DOT": 0.00005978,
    "MEAN_MOTION_DDOT": 0
   }
  },
  {
   "norad": 58646,
   "name": "TIANMU-1 12",
   "intl": "2023-205B",
   "group": "weather",
   "gcat": {
    "class": "B",
    "category": "MET",
    "owner": "TIANMU",
    "state": "CN"
   },
   "omm": {
    "OBJECT_NAME": "TIANMU-1 12",
    "OBJECT_ID": "2023-205B",
    "EPOCH": "2026-06-26T03:10:51.310848",
    "MEAN_MOTION": 15.27049196,
    "ECCENTRICITY": 0.0005677,
    "INCLINATION": 97.3435,
    "RA_OF_ASC_NODE": 198.3028,
    "ARG_OF_PERICENTER": 328.725,
    "MEAN_ANOMALY": 31.365,
    "EPHEMERIS_TYPE": 0,
    "CLASSIFICATION_TYPE": "U",
    "NORAD_CAT_ID": 58646,
    "ELEMENT_SET_NO": 999,
    "REV_AT_EPOCH": 13887,
    "BSTAR": 0.00025067,
    "MEAN_MOTION_DOT": 0.00006582,
    "MEAN_MOTION_DDOT": 0
   }
  },
  {
   "norad": 58647,
   "name": "TIANMU-1 13",
   "intl": "2023-205C",
   "group": "weather",
   "gcat": {
    "class": "B",
    "category": "MET",
    "owner": "TIANMU",
    "state": "CN"
   },
   "omm": {
    "OBJECT_NAME": "TIANMU-1 13",
    "OBJECT_ID": "2023-205C",
    "EPOCH": "2026-06-26T03:58:26.143104",
    "MEAN_MOTION": 15.26901598,
    "ECCENTRICITY": 0.0005082,
    "INCLINATION": 97.3462,
    "RA_OF_ASC_NODE": 198.6093,
    "ARG_OF_PERICENTER": 301.9267,
    "MEAN_ANOMALY": 58.1478,
    "EPHEMERIS_TYPE": 0,
    "CLASSIFICATION_TYPE": "U",
    "NORAD_CAT_ID": 58647,
    "ELEMENT_SET_NO": 999,
    "REV_AT_EPOCH": 13887,
    "BSTAR": 0.00023435,
    "MEAN_MOTION_DOT": 0.00006121,
    "MEAN_MOTION_DDOT": 0
   }
  }
 ]
}
