TIANMU-1 04             
1 55974U 23039B   26177.21883696  .00017731  00000+0  33910-3 0  9990
2 55974  97.5169 350.6974 0004432  70.8846 289.2883 15.48136677182244
TIANMU-1 05             
1 55975U 23039C   26177.21407741  .00016865  00000+0  33040-3 0  9995
2 55975  97.5212 351.1498 0003965  92.6285 267.5419 15.47453398182212
TIANMU-1 06             
1 55976U 23039D   26177.22278171  .00017324  00000+0  33252-3 0  9996
2 55976  97.5221 351.8036 0004152  87.6171 272.5555 15.48038075182247
TIANMU-1 07             
1 57399U 23101A   26177.19186304  .00006799  00000+0  23729-3 0  9991
2 57399  97.2594 227.6533 0004335 103.0761 257.0964 15.29906094163022
TIANMU-1 08             
1 57400U 23101B   26177.15848036  .00007244  00000+0  25258-3 0  9992
2 57400  97.2583 227.3900 0005699  93.7061 266.4832 15.29909999163014
TIANMU-1 09             
1 57401U 23101C   26177.20711108  .00007454  00000+0  25955-3 0  9995
2 57401  97.2540 226.8487 0004887 106.4824 253.6954 15.29945233163024
TIANMU-1 10             
1 57402U 23101D   26177.17492059  .00007311  00000+0  25482-3 0  9990
2 57402  97.2620 227.8769 0006438 103.2903 256.9056 15.29916587163013
TIANMU-1 11             
1 58645U 23205A   26177.22749484  .00005978  00000+0  22759-3 0  9999
2 58645  97.3446 198.6423 0007828 344.5577  15.5422 15.27082457138907
TIANMU-1 12             
1 58646U 23205B   26177.13253832  .00006582  00000+0  25067-3 0  9994
2 58646  97.3435 198.3028 0005677 328.7250  31.3650 15.27049196138874
TIANMU-1 13             
1 58647U 23205C   26177.16558036  .00006121  00000+0  23435-3 0  9998
2 58647  97.3462 198.6093 0005082 301.9267  58.1478 15.26901598138878
